ONEWEB-0504             
1 54122U 22138K   25140.39727046  .00000020  00000+0  18176-4 0  9998
2 54122  87.9240  23.0408 0001595  75.8601 284.2709 13.19723575125025
ONEWEB-0505             
1 54123U 22138L   25140.39411714  .00000057  00000+0  10983-3 0  9998
2 54123  87.9240  23.0317 0001248  79.2863 280.8410 13.19725048125004
ONEWEB-0506             
1 54124U 22138M   25140.36884106  .00000014  00000+0  29555-5 0  9995
2 54124  87.9241  23.0338 0001663  80.8662 279.2659 13.19724417124998
ONEWEB-0507             
1 54125U 22138N   25140.38936849 -.00000160  00000+0 -43131-3 0  9998
2 54125  87.9248  23.0792 0001625  84.0624 276.0694 13.19724870125046
ONEWEB-0508             
1 54126U 22138P   25140.38622058  .00000095  00000+0  20603-3 0  9997
2 54126  87.9247  23.0639 0001469  89.3957 270.7344 13.19725542125027
ONEWEB-0509             
1 54127U 22138Q   25140.43675313 -.00000048  00000+0 -15119-3 0  9992
2 54127  87.9239  23.0181 0001705  81.3941 278.7384 13.19724249125002
ONEWEB-0510             
1 54128U 22138R   25140.63554587  .00000161  00000+0  36471-3 0  9992
2 54128  87.9275 352.6102 0002408  81.8504 278.2902 13.20769856127466
ONEWEB-0511             
1 54129U 22138S   25140.58522939 -.00000072  00000+0 -21234-3 0  9997
2 54129  87.9240  22.9942 0001843  72.0306 288.1027 13.19723981125050
